ION SCV-007             
1 55060U 23001BD  26186.14380289  .00000616  00000+0  93286-4 0  9994
2 55060  97.8997 248.8019 0010937 278.7109  81.2863 14.77570659188908
HUYGENS                 
1 55093U 23001CN  26186.20760105  .00013435  00000+0  33362-3 0  9997
2 55093  97.3236 253.4328 0009596  29.0525 331.1253 15.40409288195142
SHARJAHSAT-1            
1 55104U 23001CZ  26186.26066981  .00027152  00000+0  48790-3 0  9999
2 55104  97.3158 255.2849 0005765  51.5657 308.6112 15.49826093195291
HORUS 1                 
1 55690U 23025A   26186.28246398  .00008420  00000+0  35599-3 0  9999
2 55690  97.3452 260.4966 0002516 127.8435 232.3030 15.23463753186809
HORUS 2                 
1 55844U 23032A   26186.25106472  .00007498  00000+0  31918-3 0  9998
2 55844  97.3524 261.2909 0000654 103.5005 256.6305 15.23270346184234
GLOBAL-19               
1 55982U 23041B   26186.21384402  .00023868  00000+0  61861-3 0  9997
2 55982  42.0015  96.7320 0007875 149.0388 211.0917 15.38492085184706
ION SCV-010             
1 56192U 23054Q   26185.73046770  .00007402  00000+0  28683-3 0  9995
2 56192  97.3754  75.0074 0014008 137.0159 223.2177 15.26354778178875
TELEOS-2                
1 56310U 23057C   26185.01879630  .00006387  00000+0  48883-3 0  9995
2 56310   9.9883  81.6183 0000888 265.8102  94.2010 14.96419942175322
SNIPE 4                 
1 56744U 23072B   26186.24626914  .00029696  00000+0  67207-3 0  9993
2 56744  97.5237  32.8308 0004009 250.0941 109.9874 15.43085063172899
SNIPE 2                 
1 56745U 23072C   26186.29994536  .00035484  00000+0  68271-3 0  9991
2 56745  97.5226  36.0589 0002784 286.5385  73.5558 15.47827221173046
2023-072G               
1 56749U 23072G   26186.32082700  .00039703  00000+0  66700-3 0  9993
2 56749  97.4880  34.9054 0001574 260.1552  99.9522 15.51673393173271
GEISAT PRECURSOR        
1 56934U 23084C   26186.34400475  .00009522  00000+0  28360-3 0  9993
2 56934  97.6249 327.8998 0004047 276.4547  83.6234 15.34911547170310
BLACKJACK ACES-3        
1 56950U 23084U   26186.09329340  .00007932  00000+0  38608-3 0  9993
2 56950  97.6236 321.4238 0001029 334.8489  25.2694 15.18655851169889
BLACKJACK ACES-2        
1 56955U 23084Z   26186.09924481  .00010526  00000+0  51122-3 0  9994
2 56955  97.6234 321.5141 0000971 140.5345 219.5960 15.18645655169890
BLACKJACK ACES-1        
1 56956U 23084AA  26186.21883562  .00010635  00000+0  51573-3 0  9994
2 56956  97.6222 321.4067 0001517 125.8153 234.3222 15.18693635119638
ION SCV-011             
1 56957U 23084AB  26186.06412353  .00008047  00000+0  28841-3 0  9990
2 56957  98.1383  15.0015 0006654 345.4859  14.6186 15.29025767168541
GHOST-3                 
1 56958U 23084AC  26186.19653713  .00026069  00000+0  49046-3 0  9996
2 56958  97.6240 335.7437 0006210 220.7706 139.3080 15.48520148170806
AFR-1                   
1 56964U 23084AJ  26186.29929484  .00005896  00000+0  21383-3 0  9994
2 56964  97.6300 323.4300 0008972 275.3849  84.6366 15.28715181169992
METEOR-M2 3             
1 57166U 23091A   26186.29639676  .00000011  00000+0  23435-4 0  9993
2 57166  98.6078 240.9034 0005076 112.4461 247.7256 14.24048383157096
UMKA 1 (RS40S)          
1 57172U 23091G   26186.18664831  .00011046  00000+0  49909-3 0  9992
2 57172  97.5033 244.8159 0013842  61.7535 298.5096 15.21041890166743
2023-091H               
1 57173U 23091H   26186.18219410  .00019938  00000+0  70714-3 0  9998
2 57173  97.5033 249.5236 0010520  57.9099 302.3161 15.29059979167051
2023-091J               
1 57174U 23091J   26186.29778316  .00006708  00000+0  37142-3 0  9995
2 57174  97.5038 239.1364 0014790  86.9235 273.3689 15.14064259166378
CUBEBEL 2 (EU11S)       
1 57175U 23091K   26186.17663612  .00022881  00000+0  79642-3 0  9996
2 57175  97.5036 249.5588 0010516  59.1852 301.0422 15.29645034167051
SITRO-AIS 5 (KATYS)     
1 57176U 23091L   26186.19028822  .00021055  00000+0  72721-3 0  9990
2 57176  97.5045 250.2650 0011673  46.4091 313.8116 15.29902353167095
ZORKIY-2M 1             
1 57177U 23091M   26186.30343094  .00011782  00000+0  53015-3 0  9996
2 57177  97.5076 245.2129 0014291  58.5531 301.7100 15.21160492166750
CUBESX-HSE 3 (RS42S)    
1 57178U 23091N   26186.14243294  .00024130  00000+0  78789-3 0  9996
2 57178  97.5076 251.9612 0010729  37.1242 323.0739 15.31702832167179
MONITOR-3 (RS58S)       
1 57180U 23091Q   26186.27250770  .00017520  00000+0  63749-3 0  9995
2 57180  97.5068 249.8546 0012017  43.4976 316.7209 15.28232784167059
MONITOR-4 (RS57S)       
1 57182U 23091S   26186.11961537  .00019635  00000+0  71209-3 0  9999
2 57182  97.5062 249.6727 0012043  44.3387 315.8815 15.28315671167037
MONITOR-2 (RS39S)       
1 57184U 23091U   26186.29658521  .00008464  00000+0  40576-3 0  9997
2 57184  97.5058 244.4634 0012258  55.9264 304.3132 15.19092496166709
SVYATOBOR 1 (RS60S)     
1 57187U 23091X   26186.27948733  .00014674  00000+0  55621-3 0  9992
2 57187  97.5074 250.1992 0009763  38.3897 321.8035 15.26944983167077
