OBJECT_NAME,OBJECT_ID,EPOCH,MEAN_MOTION,ECCENTRICITY,INCLINATION,RA_OF_ASC_NODE,ARG_OF_PERICENTER,MEAN_ANOMALY,EPHEMERIS_TYPE,CLASSIFICATION_TYPE,NORAD_CAT_ID,ELEMENT_SET_NO,REV_AT_EPOCH,BSTAR,MEAN_MOTION_DOT,MEAN_MOTION_DDOT
ION SCV-007,2023-001BD,2026-07-05T03:27:04.569696,14.77570659,.00109373,97.8997,248.8019,278.7109,81.2863,0,U,55060,999,18890,.93285734E-4,.616E-5,0
HUYGENS,2023-001CN,2026-07-05T04:58:56.730720,15.40409288,.0009596,97.3236,253.4328,29.0525,331.1253,0,U,55093,999,19514,.33362352E-3,.13435E-3,0
SHARJAHSAT-1,2023-001CZ,2026-07-05T06:15:21.871584,15.49826093,.00057658,97.3158,255.2849,51.5657,308.6112,0,U,55104,999,19529,.48790189E-3,.27152E-3,0
HORUS 1,2023-025A,2026-07-05T06:46:44.887872,15.23463753,.0002516,97.3452,260.4966,127.8435,232.3030,0,U,55690,999,18680,.35598651E-3,.842E-4,0
HORUS 2,2023-032A,2026-07-05T06:01:31.991808,15.23270346,.0000654,97.3524,261.2909,103.5005,256.6305,0,U,55844,999,18423,.31918039E-3,.7498E-4,0
GLOBAL-19,2023-041B,2026-07-05T05:07:56.123328,15.38492085,.00078759,42.0015,96.7320,149.0388,211.0917,0,U,55982,999,18470,.61861034E-3,.23868E-3,0
ION SCV-010,2023-054Q,2026-07-04T17:31:52.409280,15.26354778,.00140086,97.3754,75.0074,137.0159,223.2177,0,U,56192,999,17887,.28682525E-3,.7402E-4,0
TELEOS-2,2023-057C,2026-07-04T00:27:04.000320,14.96419942,.00008887,9.9883,81.6183,265.8102,94.2010,0,U,56310,999,17532,.48882532E-3,.6387E-4,0
SNIPE 4,2023-072B,2026-07-05T05:54:37.653696,15.43085063,.00040095,97.5237,32.8308,250.0941,109.9874,0,U,56744,999,17289,.67206793E-3,.29696E-3,0
SNIPE 2,2023-072C,2026-07-05T07:11:55.279104,15.47827221,.00027846,97.5226,36.0589,286.5385,73.5558,0,U,56745,999,17304,.6827076E-3,.35484E-3,0
2023-072G,2023-072G,2026-07-05T07:41:59.452800,15.51673393,.00015742,97.4880,34.9054,260.1552,99.9522,0,U,56749,999,17327,.66699908E-3,.39703E-3,0
GEISAT PRECURSOR,2023-084C,2026-07-05T08:15:22.010400,15.34911547,.00040475,97.6249,327.8998,276.4547,83.6234,0,U,56934,999,17031,.28360121E-3,.9522E-4,0
BLACKJACK ACES-3,2023-084U,2026-07-05T02:14:20.549760,15.18655851,.00010294,97.6236,321.4238,334.8489,25.2694,0,U,56950,999,16988,.38607683E-3,.7932E-4,0
BLACKJACK ACES-2,2023-084Z,2026-07-05T02:22:54.751584,15.18645655,.00009714,97.6234,321.5141,140.5345,219.5960,0,U,56955,999,16989,.5112174E-3,.10526E-3,0
BLACKJACK ACES-1,2023-084AA,2026-07-05T05:15:07.397568,15.18693635,.0001517,97.6222,321.4067,125.8153,234.3222,0,U,56956,999,11963,.5157308E-3,.10635E-3,0
ION SCV-011,2023-084AB,2026-07-05T01:32:20.272992,15.29025767,.00066548,98.1383,15.0015,345.4859,14.6186,0,U,56957,999,16854,.28841448E-3,.8047E-4,0
GHOST-3,2023-084AC,2026-07-05T04:43:00.808032,15.48520148,.00062106,97.6240,335.7437,220.7706,139.3080,0,U,56958,999,17080,.49046035E-3,.26069E-3,0
AFR-1,2023-084AJ,2026-07-05T07:10:59.074176,15.28715181,.00089728,97.6300,323.4300,275.3849,84.6366,0,U,56964,999,16999,.21383169E-3,.5896E-4,0
METEOR-M2 3,2023-091A,2026-07-05T07:06:48.680064,14.24048383,.00050764,98.6078,240.9034,112.4461,247.7256,0,U,57166,999,15709,.2343481E-4,.11E-6,0
UMKA 1 (RS40S),2023-091G,2026-07-05T04:28:46.413984,15.21041890,.00138423,97.5033,244.8159,61.7535,298.5096,0,U,57172,999,16674,.49909272E-3,.11046E-3,0
2023-091H,2023-091H,2026-07-05T04:22:21.570240,15.29059979,.00105205,97.5033,249.5236,57.9099,302.3161,0,U,57173,999,16705,.70714124E-3,.19938E-3,0
2023-091J,2023-091J,2026-07-05T07:08:48.465024,15.14064259,.00147904,97.5038,239.1364,86.9235,273.3689,0,U,57174,999,16637,.37141735E-3,.6708E-4,0
CUBEBEL 2 (EU11S),2023-091K,2026-07-05T04:14:21.360768,15.29645034,.00105165,97.5036,249.5588,59.1852,301.0422,0,U,57175,999,16705,.79641614E-3,.22881E-3,0
SITRO-AIS 5 (KATYS),2023-091L,2026-07-05T04:34:00.902208,15.29902353,.0011673,97.5045,250.2650,46.4091,313.8116,0,U,57176,999,16709,.7272066E-3,.21055E-3,0
ZORKIY-2M 1,2023-091M,2026-07-05T07:16:56.433216,15.21160492,.00142919,97.5076,245.2129,58.5531,301.7100,0,U,57177,999,16675,.5301503E-3,.11782E-3,0
CUBESX-HSE 3 (RS42S),2023-091N,2026-07-05T03:25:06.206016,15.31702832,.00107295,97.5076,251.9612,37.1242,323.0739,0,U,57178,999,16717,.78788827E-3,.2413E-3,0
MONITOR-3 (RS58S),2023-091Q,2026-07-05T06:32:24.665280,15.28232784,.00120171,97.5068,249.8546,43.4976,316.7209,0,U,57180,999,16705,.63749347E-3,.1752E-3,0
MONITOR-4 (RS57S),2023-091S,2026-07-05T02:52:14.767968,15.28315671,.00120431,97.5062,249.6727,44.3387,315.8815,0,U,57182,999,16703,.7120852E-3,.19635E-3,0
MONITOR-2 (RS39S),2023-091U,2026-07-05T07:07:04.962144,15.19092496,.00122583,97.5058,244.4634,55.9264,304.3132,0,U,57184,999,16670,.40575891E-3,.8464E-4,0
SVYATOBOR 1 (RS60S),2023-091X,2026-07-05T06:42:27.705312,15.26944983,.00097638,97.5074,250.1992,38.3897,321.8035,0,U,57187,999,16707,.55620511E-3,.14674E-3,0
